{"type": "FeatureCollection", "features": [ {"type": "Feature", "properties": {"norad_id": 35142, "name": "FENGYUN 1C DEB", "group": "fengyun-1c-debris", "lat": -28.245406975808056, "lon": 163.46671571057908, "alt_km": 858.7812063557667, "timestamp": "2025-12-22T11:33:20.727081+00:00", "meta": {"OBJECT_NAME": "FENGYUN 1C DEB", "OBJECT_ID": "1999-025DLW", "EPOCH": "2025-12-20T05:20:32.282304", "MEAN_MOTION": 13.90510697, "ECCENTRICITY": 0.0108018, "INCLINATION": 99.045, "RA_OF_ASC_NODE": 346.1776, "ARG_OF_PERICENTER": 193.6581, "MEAN_ANOMALY": 232.9005, "EPHEMERIS_TYPE": 0, "CLASSIFICATION_TYPE": "U", "NORAD_CAT_ID": 35142, "ELEMENT_SET_NO": 999, "REV_AT_EPOCH": 85793, "BSTAR": 0.00017457, "MEAN_MOTION_DOT": 1.85e-06, "MEAN_MOTION_DDOT": 0}, "tle": {"line1": "1 35142U 99025DLW 25354.22259586  .00000185  00000+0  17457-3 0  9998", "line2": "2 35142  99.0450 346.1776 0108018 193.6581 232.9005 13.90510697857933"}}, "geometry": {"type": "Point", "coordinates": [163.46671571057908, -28.245406975808056]}}, {"type": "Feature", "properties": {"norad_id": 35144, "name": "FENGYUN 1C DEB", "group": "fengyun-1c-debris", "lat": -2.257427080182862, "lon": 112.6416195105668, "alt_km": 681.6420815444844, "timestamp": "2025-12-22T11:33:20.727092+00:00", "meta": {"OBJECT_NAME": "FENGYUN 1C DEB", "OBJECT_ID": "1999-025DLY", "EPOCH": "2025-12-15T03:29:25.584864", "MEAN_MOTION": 14.59259684, "ECCENTRICITY": 0.00266192, "INCLINATION": 98.6997, "RA_OF_ASC_NODE": 104.611, "ARG_OF_PERICENTER": 353.8009, "MEAN_ANOMALY": 6.2856, "EPHEMERIS_TYPE": 0, "CLASSIFICATION_TYPE": "U", "NORAD_CAT_ID": 35144, "ELEMENT_SET_NO": 999, "REV_AT_EPOCH": 65248, "BSTAR": 0.0015089834, "MEAN_MOTION_DOT": 7.114e-05, "MEAN_MOTION_DDOT": 0}, "tle": {"line1": "1 35144U 99025DLY 25349.14543501  .00007114  00000+0  15090-2 0  9997", "line2": "2 35144  98.6997 104.6110 0026619 353.8009   6.2856 14.59259684652487"}}, "geometry": {"type": "Point", "coordinates": [112.6416195105668, -2.257427080182862]}}, {"type": "Feature", "properties": {"norad_id": 35147, "name": "FENGYUN 1C DEB", "group": "fengyun-1c-debris", "lat": -1.3428476733354195, "lon": 71.65094900601142, "alt_km": 668.8102788449669, "timestamp": "2025-12-22T11:33:20.727102+00:00", "meta": {"OBJECT_NAME": "FENGYUN 1C DEB", "OBJECT_ID": "1999-025DMB", "EPOCH": "2025-12-21T16:01:08.772960", "MEAN_MOTION": 14.74533095, "ECCENTRICITY": 0.0027536, "INCLINATION": 99.4858, "RA_OF_ASC_NODE": 70.4745, "ARG_OF_PERICENTER": 172.1747, "MEAN_ANOMALY": 187.9891, "EPHEMERIS_TYPE": 0, "CLASSIFICATION_TYPE": "U", "NORAD_CAT_ID": 35147, "ELEMENT_SET_NO": 999, "REV_AT_EPOCH": 74436, "BSTAR": 0.0017501, "MEAN_MOTION_DOT": 0.00011668, "MEAN_MOTION_DDOT": 0}, "tle": {"line1": "1 35147U 99025DMB 25355.66746265  .00011668  00000+0  17501-2 0  9994", "line2": "2 35147  99.4858  70.4745 0027536 172.1747 187.9891 14.74533095744362"}}, "geometry": {"type": "Point", "coordinates": [71.65094900601142, -1.3428476733354195]}}, {"type": "Feature", "properties": {"norad_id": 35152, "name": "FENGYUN 1C DEB", "group": "fengyun-1c-debris", "lat": -72.88783140985856, "lon": -34.75100799301989, "alt_km": 991.9527754976607, "timestamp": "2025-12-22T11:33:20.727112+00:00", "meta": {"OBJECT_NAME": "FENGYUN 1C DEB", "OBJECT_ID": "1999-025DMG", "EPOCH": "2025-12-16T18:13:57.032832", "MEAN_MOTION": 13.7643783, "ECCENTRICITY": 0.01945259, "INCLINATION": 99.8194, "RA_OF_ASC_NODE": 173.5777, "ARG_OF_PERICENTER": 5.0809, "MEAN_ANOMALY": 355.2255, "EPHEMERIS_TYPE": 0, "CLASSIFICATION_TYPE": "U", "NORAD_CAT_ID": 35152, "ELEMENT_SET_NO": 999, "REV_AT_EPOCH": 62248, "BSTAR": 0.00057948786, "MEAN_MOTION_DOT": 6.03e-06, "MEAN_MOTION_DDOT": 0}, "tle": {"line1": "1 35152U 99025DMG 25350.75968788  .00000603  00000+0  57949-3 0  9999", "line2": "2 35152  99.8194 173.5777 0194525   5.0809 355.2255 13.76437830622484"}}, "geometry": {"type": "Point", "coordinates": [-34.75100799301989, -72.88783140985856]}}, {"type": "Feature", "properties": {"norad_id": 35153, "name": "FENGYUN 1C DEB", "group": "fengyun-1c-debris", "lat": -73.9318137133207, "lon": -77.79721619920291, "alt_km": 731.4075428636361, "timestamp": "2025-12-22T11:33:20.727122+00:00", "meta": {"OBJECT_NAME": "FENGYUN 1C DEB", "OBJECT_ID": "1999-025DMH", "EPOCH": "2025-12-21T22:52:03.552960", "MEAN_MOTION": 14.73783964, "ECCENTRICITY": 0.0170931, "INCLINATION": 98.9023, "RA_OF_ASC_NODE": 248.6541, "ARG_OF_PERICENTER": 54.5717, "MEAN_ANOMALY": 307.1314, "EPHEMERIS_TYPE": 0, "CLASSIFICATION_TYPE": "U", "NORAD_CAT_ID": 35153, "ELEMENT_SET_NO": 999, "REV_AT_EPOCH": 97353, "BSTAR": 0.0003795, "MEAN_MOTION_DOT": 3.066e-05, "MEAN_MOTION_DDOT": 0}, "tle": {"line1": "1 35153U 99025DMH 25355.95281890  .00003066  00000+0  37950-3 0  9995", "line2": "2 35153  98.9023 248.6541 0170931  54.5717 307.1314 14.73783964973538"}}, "geometry": {"type": "Point", "coordinates": [-77.79721619920291, -73.9318137133207]}}, {"type": "Feature", "properties": {"norad_id": 35154, "name": "FENGYUN 1C DEB", "group": "fengyun-1c-debris", "lat": 66.95283675203059, "lon": -38.452445475212066, "alt_km": 833.6881971429784, "timestamp": "2025-12-22T11:33:20.727132+00:00", "meta": {"OBJECT_NAME": "FENGYUN 1C DEB", "OBJECT_ID": "1999-025DMJ", "EPOCH": "2025-12-21T14:44:17.053728", "MEAN_MOTION": 14.18909394, "ECCENTRICITY": 0.0179024, "INCLINATION": 99.4221, "RA_OF_ASC_NODE": 117.6528, "ARG_OF_PERICENTER": 17.5176, "MEAN_ANOMALY": 343.2066, "EPHEMERIS_TYPE": 0, "CLASSIFICATION_TYPE": "U", "NORAD_CAT_ID": 35154, "ELEMENT_SET_NO": 999, "REV_AT_EPOCH": 64703, "BSTAR": 0.00022139, "MEAN_MOTION_DOT": 4.9e-06, "MEAN_MOTION_DDOT": 0}, "tle": {"line1": "1 35154U 99025DMJ 25355.61408627  .00000490  00000+0  22139-3 0  9999", "line2": "2 35154  99.4221 117.6528 0179024  17.5176 343.2066 14.18909394647039"}}, "geometry": {"type": "Point", "coordinates": [-38.452445475212066, 66.95283675203059]}}, {"type": "Feature", "properties": {"norad_id": 35155, "name": "FENGYUN 1C DEB", "group": "fengyun-1c-debris", "lat": -61.555490158150825, "lon": 171.7296443168384, "alt_km": 852.6796413451666, "timestamp": "2025-12-22T11:33:20.727142+00:00", "meta": {"OBJECT_NAME": "FENGYUN 1C DEB", "OBJECT_ID": "1999-025DMK", "EPOCH": "2025-12-13T11:32:29.448096", "MEAN_MOTION": 14.19285709, "ECCENTRICITY": 0.00260991, "INCLINATION": 98.5012, "RA_OF_ASC_NODE": 359.121, "ARG_OF_PERICENTER": 70.7543, "MEAN_ANOMALY": 289.6454, "EPHEMERIS_TYPE": 0, "CLASSIFICATION_TYPE": "U", "NORAD_CAT_ID": 35155, "ELEMENT_SET_NO": 999, "REV_AT_EPOCH": 72724, "BSTAR": 0.00090034288, "MEAN_MOTION_DOT": 1.854e-05, "MEAN_MOTION_DDOT": 0}, "tle": {"line1": "1 35155U 99025DMK 25347.48089639  .00001854  00000+0  90034-3 0  9998", "line2": "2 35155  98.5012 359.1210 0026099  70.7543 289.6454 14.19285709727245"}}, "geometry": {"type": "Point", "coordinates": [171.7296443168384, -61.555490158150825]}}, {"type": "Feature", "properties": {"norad_id": 35156, "name": "FENGYUN 1C DEB", "group": "fengyun-1c-debris", "lat": 18.94828294005878, "lon": -20.384585154215902, "alt_km": 862.6015234362494, "timestamp": "2025-12-22T11:33:20.727152+00:00", "meta": {"OBJECT_NAME": "FENGYUN 1C DEB", "OBJECT_ID": "1999-025DML", "EPOCH": "2025-12-12T16:32:42.860544", "MEAN_MOTION": 14.10626157, "ECCENTRICITY": 0.00370025, "INCLINATION": 98.7527, "RA_OF_ASC_NODE": 333.1123, "ARG_OF_PERICENTER": 148.5895, "MEAN_ANOMALY": 211.7497, "EPHEMERIS_TYPE": 0, "CLASSIFICATION_TYPE": "U", "NORAD_CAT_ID": 35156, "ELEMENT_SET_NO": 999, "REV_AT_EPOCH": 64043, "BSTAR": 0.00049181464, "MEAN_MOTION_DOT": 8.41e-06, "MEAN_MOTION_DDOT": 0}, "tle": {"line1": "1 35156U 99025DML 25346.68938496  .00000841  00000+0  49181-3 0  9996", "line2": "2 35156  98.7527 333.1123 0037002 148.5895 211.7497 14.10626157640439"}}, "geometry": {"type": "Point", "coordinates": [-20.384585154215902, 18.94828294005878]}}, {"type": "Feature", "properties": {"norad_id": 35159, "name": "FENGYUN 1C DEB", "group": "fengyun-1c-debris", "lat": -14.483895585104044, "lon": -110.2231783247879, "alt_km": 739.8969626807593, "timestamp": "2025-12-22T11:33:20.727162+00:00", "meta": {"OBJECT_NAME": "FENGYUN 1C DEB", "OBJECT_ID": "1999-025DMP", "EPOCH": "2025-12-18T03:56:12.547968", "MEAN_MOTION": 14.45218567, "ECCENTRICITY": 0.00125233, "INCLINATION": 98.8399, "RA_OF_ASC_NODE": 67.5884, "ARG_OF_PERICENTER": 158.7222, "MEAN_ANOMALY": 265.4799, "EPHEMERIS_TYPE": 0, "CLASSIFICATION_TYPE": "U", "NORAD_CAT_ID": 35159, "ELEMENT_SET_NO": 999, "REV_AT_EPOCH": 61559, "BSTAR": 0.0014431144, "MEAN_MOTION_DOT": 5.018e-05, "MEAN_MOTION_DDOT": 0}, "tle": {"line1": "1 35159U 99025DMP 25352.16403412  .00005018  00000+0  14431-2 0  9994", "line2": "2 35159  98.8399  67.5884 0012523 158.7222 265.4799 14.45218567615590"}}, "geometry": {"type": "Point", "coordinates": [-110.2231783247879, -14.483895585104044]}}, {"type": "Feature", "properties": {"norad_id": 35160, "name": "FENGYUN 1C DEB", "group": "fengyun-1c-debris", "lat": -45.30040165077387, "lon": 120.89428097393198, "alt_km": 804.8631114522304, "timestamp": "2025-12-22T11:33:20.727172+00:00", "meta": {"OBJECT_NAME": "FENGYUN 1C DEB", "OBJECT_ID": "1999-025DMQ", "EPOCH": "2025-12-16T13:37:44.190912", "MEAN_MOTION": 14.35976797, "ECCENTRICITY": 0.01760845, "INCLINATION": 99.155, "RA_OF_ASC_NODE": 105.2355, "ARG_OF_PERICENTER": 228.1924, "MEAN_ANOMALY": 130.4106, "EPHEMERIS_TYPE": 0, "CLASSIFICATION_TYPE": "U", "NORAD_CAT_ID": 35160, "ELEMENT_SET_NO": 999, "REV_AT_EPOCH": 64986, "BSTAR": 0.00041002814, "MEAN_MOTION_DOT": 1.364e-05, "MEAN_MOTION_DDOT": 0}, "tle": {"line1": "1 35160U 99025DMQ 25350.56787258  .00001364  00000+0  41003-3 0  9997", "line2": "2 35160  99.1550 105.2355 0176084 228.1924 130.4106 14.35976797649867"}}, "geometry": {"type": "Point", "coordinates": [120.89428097393198, -45.30040165077387]}}]}